[{"OBJECT_NAME":"STARLINK-6128","OBJECT_ID":"2023-090AH","EPOCH":"2025-09-26T18:54:05.248800","MEAN_MOTION":15.02529896,"ECCENTRICITY":0.00013538,"INCLINATION":43.0048,"RA_OF_ASC_NODE":84.781,"ARG_OF_PERICENTER":279.5924,"MEAN_ANOMALY":80.4765,"EPHEMERIS_TYPE":0,"CLASSIFICATION_TYPE":"U","NORAD_CAT_ID":57132,"ELEMENT_SET_NO":999,"REV_AT_EPOCH":12557,"BSTAR":4.4809607e-5,"MEAN_MOTION_DOT":4.02e-6,"MEAN_MOTION_DDOT":0},{"OBJECT_NAME":"STARLINK-6143","OBJECT_ID":"2023-090AJ","EPOCH":"2025-09-26T18:43:26.221440","MEAN_MOTION":15.02543952,"ECCENTRICITY":0.00014465,"INCLINATION":43.0048,"RA_OF_ASC_NODE":72.5673,"ARG_OF_PERICENTER":267.0619,"MEAN_ANOMALY":93.0058,"EPHEMERIS_TYPE":0,"CLASSIFICATION_TYPE":"U","NORAD_CAT_ID":57133,"ELEMENT_SET_NO":999,"REV_AT_EPOCH":12571,"BSTAR":-0.00011117274,"MEAN_MOTION_DOT":-1.705e-5,"MEAN_MOTION_DDOT":0},{"OBJECT_NAME":"STARLINK-6133","OBJECT_ID":"2023-090AK","EPOCH":"2025-09-25T22:19:44.079456","MEAN_MOTION":15.02544166,"ECCENTRICITY":0.00012183,"INCLINATION":43.0037,"RA_OF_ASC_NODE":77.37,"ARG_OF_PERICENTER":269.3512,"MEAN_ANOMALY":90.7191,"EPHEMERIS_TYPE":0,"CLASSIFICATION_TYPE":"U","NORAD_CAT_ID":57134,"ELEMENT_SET_NO":999,"REV_AT_EPOCH":12558,"BSTAR":0.00012545209,"MEAN_MOTION_DOT":1.492e-5,"MEAN_MOTION_DDOT":0},{"OBJECT_NAME":"STARLINK-6127","OBJECT_ID":"2023-090AL","EPOCH":"2025-09-26T20:04:46.523712","MEAN_MOTION":15.02524323,"ECCENTRICITY":0.0001483,"INCLINATION":43.0057,"RA_OF_ASC_NODE":72.1328,"ARG_OF_PERICENTER":278.1389,"MEAN_ANOMALY":81.9286,"EPHEMERIS_TYPE":0,"CLASSIFICATION_TYPE":"U","NORAD_CAT_ID":57135,"ELEMENT_SET_NO":999,"REV_AT_EPOCH":12572,"BSTAR":-8.2184261e-5,"MEAN_MOTION_DOT":-1.313e-5,"MEAN_MOTION_DDOT":0},{"OBJECT_NAME":"STARLINK-6112","OBJECT_ID":"2023-090AM","EPOCH":"2025-09-26T20:35:09.290688","MEAN_MOTION":15.02529216,"ECCENTRICITY":0.000102,"INCLINATION":43.0023,"RA_OF_ASC_NODE":72.2877,"ARG_OF_PERICENTER":272.5098,"MEAN_ANOMALY":87.5627,"EPHEMERIS_TYPE":0,"CLASSIFICATION_TYPE":"U","NORAD_CAT_ID":57136,"ELEMENT_SET_NO":999,"REV_AT_EPOCH":12574,"BSTAR":1.1222062e-5,"MEAN_MOTION_DOT":-5.2e-7,"MEAN_MOTION_DDOT":0},{"OBJECT_NAME":"STARLINK-5347","OBJECT_ID":"2023-090AN","EPOCH":"2025-09-26T21:51:41.894784","MEAN_MOTION":15.025389,"ECCENTRICITY":0.00017043,"INCLINATION":43.005,"RA_OF_ASC_NODE":71.825,"ARG_OF_PERICENTER":268.9064,"MEAN_ANOMALY":91.1583,"EPHEMERIS_TYPE":0,"CLASSIFICATION_TYPE":"U","NORAD_CAT_ID":57137,"ELEMENT_SET_NO":999,"REV_AT_EPOCH":12573,"BSTAR":-6.8357533e-5,"MEAN_MOTION_DOT":-1.127e-5,"MEAN_MOTION_DDOT":0},{"OBJECT_NAME":"STARLINK-5336","OBJECT_ID":"2023-090AP","EPOCH":"2025-09-26T18:57:49.641696","MEAN_MOTION":15.02529881,"ECCENTRICITY":8.953e-5,"INCLINATION":43.0015,"RA_OF_ASC_NODE":72.6393,"ARG_OF_PERICENTER":267.1166,"MEAN_ANOMALY":92.9574,"EPHEMERIS_TYPE":0,"CLASSIFICATION_TYPE":"U","NORAD_CAT_ID":57138,"ELEMENT_SET_NO":999,"REV_AT_EPOCH":12571,"BSTAR":1.5684357e-5,"MEAN_MOTION_DOT":8.0e-8,"MEAN_MOTION_DDOT":0},{"OBJECT_NAME":"STARLINK-5355","OBJECT_ID":"2023-090AQ","EPOCH":"2025-09-26T10:35:12.240096","MEAN_MOTION":15.02540143,"ECCENTRICITY":4.121e-5,"INCLINATION":42.9983,"RA_OF_ASC_NODE":74.3192,"ARG_OF_PERICENTER":127.1289,"MEAN_ANOMALY":232.9591,"EPHEMERIS_TYPE":0,"CLASSIFICATION_TYPE":"U","NORAD_CAT_ID":57139,"ELEMENT_SET_NO":999,"REV_AT_EPOCH":12566,"BSTAR":1.718378e-6,"MEAN_MOTION_DOT":-1.8e-6,"MEAN_MOTION_DDOT":0},{"OBJECT_NAME":"STARLINK-5357","OBJECT_ID":"2023-090AS","EPOCH":"2025-09-26T21:37:18.954048","MEAN_MOTION":15.02532656,"ECCENTRICITY":9.715e-5,"INCLINATION":43.002,"RA_OF_ASC_NODE":71.7506,"ARG_OF_PERICENTER":274.3486,"MEAN_ANOMALY":85.7245,"EPHEMERIS_TYPE":0,"CLASSIFICATION_TYPE":"U","NORAD_CAT_ID":57141,"ELEMENT_SET_NO":999,"REV_AT_EPOCH":12573,"BSTAR":-1.1925718e-5,"MEAN_MOTION_DOT":-3.65e-6,"MEAN_MOTION_DDOT":0},{"OBJECT_NAME":"STARLINK-5361","OBJECT_ID":"2023-090AT","EPOCH":"2025-09-26T18:19:29.595936","MEAN_MOTION":15.02403234,"ECCENTRICITY":1.966e-5,"INCLINATION":43.0036,"RA_OF_ASC_NODE":72.4347,"ARG_OF_PERICENTER":38.5668,"MEAN_ANOMALY":321.5189,"EPHEMERIS_TYPE":0,"CLASSIFICATION_TYPE":"U","NORAD_CAT_ID":57142,"ELEMENT_SET_NO":999,"REV_AT_EPOCH":12571,"BSTAR":0.0021207124,"MEAN_MOTION_DOT":0.00028459,"MEAN_MOTION_DDOT":0},{"OBJECT_NAME":"STARLINK-5358","OBJECT_ID":"2023-090AU","EPOCH":"2025-09-26T19:50:23.777376","MEAN_MOTION":15.02530643,"ECCENTRICITY":0.00013965,"INCLINATION":43.0043,"RA_OF_ASC_NODE":72.0534,"ARG_OF_PERICENTER":264.6368,"MEAN_ANOMALY":95.4316,"EPHEMERIS_TYPE":0,"CLASSIFICATION_TYPE":"U","NORAD_CAT_ID":57143,"ELEMENT_SET_NO":999,"REV_AT_EPOCH":12572,"BSTAR":8.3246965e-5,"MEAN_MOTION_DOT":9.21e-6,"MEAN_MOTION_DDOT":0},{"OBJECT_NAME":"STARLINK-5150","OBJECT_ID":"2023-090AV","EPOCH":"2025-09-26T12:07:44.268672","MEAN_MOTION":15.02532618,"ECCENTRICITY":0.00011181,"INCLINATION":43.0013,"RA_OF_ASC_NODE":73.9391,"ARG_OF_PERICENTER":245.2209,"MEAN_ANOMALY":114.8517,"EPHEMERIS_TYPE":0,"CLASSIFICATION_TYPE":"U","NORAD_CAT_ID":57144,"ELEMENT_SET_NO":999,"REV_AT_EPOCH":12567,"BSTAR":-0.00017201616,"MEAN_MOTION_DOT":-2.526e-5,"MEAN_MOTION_DDOT":0},{"OBJECT_NAME":"STARLINK-5768","OBJECT_ID":"2023-090AW","EPOCH":"2025-09-26T19:37:36.799392","MEAN_MOTION":15.02531725,"ECCENTRICITY":0.00013849,"INCLINATION":43.0034,"RA_OF_ASC_NODE":71.984,"ARG_OF_PERICENTER":269.0202,"MEAN_ANOMALY":91.0481,"EPHEMERIS_TYPE":0,"CLASSIFICATION_TYPE":"U","NORAD_CAT_ID":57145,"ELEMENT_SET_NO":999,"REV_AT_EPOCH":12572,"BSTAR":-1.6728572e-5,"MEAN_MOTION_DOT":-4.3e-6,"MEAN_MOTION_DDOT":0},{"OBJECT_NAME":"STARLINK-5791","OBJECT_ID":"2023-090AX","EPOCH":"2025-09-26T19:47:12.374592","MEAN_MOTION":15.02529832,"ECCENTRICITY":0.00012381,"INCLINATION":43.0044,"RA_OF_ASC_NODE":72.0335,"ARG_OF_PERICENTER":266.4698,"MEAN_ANOMALY":93.6002,"EPHEMERIS_TYPE":0,"CLASSIFICATION_TYPE":"U","NORAD_CAT_ID":57146,"ELEMENT_SET_NO":999,"REV_AT_EPOCH":12572,"BSTAR":-2.9964765e-5,"MEAN_MOTION_DOT":-6.08e-6,"MEAN_MOTION_DDOT":0},{"OBJECT_NAME":"STARLINK-5765","OBJECT_ID":"2023-090AY","EPOCH":"2025-09-26T22:42:40.027968","MEAN_MOTION":15.0253608,"ECCENTRICITY":0.00010372,"INCLINATION":43.0031,"RA_OF_ASC_NODE":71.2269,"ARG_OF_PERICENTER":271.511,"MEAN_ANOMALY":88.5614,"EPHEMERIS_TYPE":0,"CLASSIFICATION_TYPE":"U","NORAD_CAT_ID":57147,"ELEMENT_SET_NO":999,"REV_AT_EPOCH":12593,"BSTAR":2.740652e-5,"MEAN_MOTION_DOT":1.67e-6,"MEAN_MOTION_DDOT":0},{"OBJECT_NAME":"STARLINK-5788","OBJECT_ID":"2023-090AZ","EPOCH":"2025-09-26T19:21:37.495872","MEAN_MOTION":15.0252743,"ECCENTRICITY":0.00014256,"INCLINATION":43.0033,"RA_OF_ASC_NODE":71.9009,"ARG_OF_PERICENTER":275.877,"MEAN_ANOMALY":84.191,"EPHEMERIS_TYPE":0,"CLASSIFICATION_TYPE":"U","NORAD_CAT_ID":57148,"ELEMENT_SET_NO":999,"REV_AT_EPOCH":12572,"BSTAR":0.00011409196,"MEAN_MOTION_DOT":1.337e-5,"MEAN_MOTION_DDOT":0}]
