STARLINK-6128           
1 57132U 23090AH  25269.78756075  .00000402  00000+0  44810-4 0  9997
2 57132  43.0048  84.7810 0001353 279.5924  80.4765 15.02529896125574
STARLINK-6143           
1 57133U 23090AJ  25269.78016460 -.00001705  00000+0 -11117-3 0  9997
2 57133  43.0048  72.5673 0001446 267.0619  93.0058 15.02543952125713
STARLINK-6133           
1 57134U 23090AK  25268.93037129  .00001492  00000+0  12545-3 0  9996
2 57134  43.0037  77.3700 0001218 269.3512  90.7191 15.02544166125585
STARLINK-6127           
1 57135U 23090AL  25269.83664958 -.00001313  00000+0 -82184-4 0  9994
2 57135  43.0057  72.1328 0001483 278.1389  81.9286 15.02524323125727
STARLINK-6112           
1 57136U 23090AM  25269.85774642 -.00000052  00000+0  11222-4 0  9992
2 57136  43.0023  72.2877 0001020 272.5098  87.5627 15.02529216125742
STARLINK-5347           
1 57137U 23090AN  25269.91090156 -.00001127  00000+0 -68358-4 0  9998
2 57137  43.0050  71.8250 0001704 268.9064  91.1583 15.02538900125735
STARLINK-5336           
1 57138U 23090AP  25269.79015789  .00000008  00000+0  15684-4 0  9993
2 57138  43.0015  72.6393 0000895 267.1166  92.9574 15.02529881125713
STARLINK-5355           
1 57139U 23090AQ  25269.44111389 -.00000180  00000+0  17184-5 0  9999
2 57139  42.9983  74.3192 0000412 127.1289 232.9591 15.02540143125661
STARLINK-5357           
1 57141U 23090AS  25269.90091382 -.00000365  00000+0 -11926-4 0  9996
2 57141  43.0020  71.7506 0000971 274.3486  85.7245 15.02532656125730
STARLINK-5361           
1 57142U 23090AT  25269.76353699  .00028459  00000+0  21207-2 0  9996
2 57142  43.0036  72.4347 0000196  38.5668 321.5189 15.02403234125715
STARLINK-5358           
1 57143U 23090AU  25269.82666409  .00000921  00000+0  83247-4 0  9998
2 57143  43.0043  72.0534 0001396 264.6368  95.4316 15.02530643125725
STARLINK-5150           
1 57144U 23090AV  25269.50537348 -.00002526  00000+0 -17202-3 0  9995
2 57144  43.0013  73.9391 0001118 245.2209 114.8517 15.02532618125672
STARLINK-5768           
1 57145U 23090AW  25269.81778703 -.00000430  00000+0 -16729-4 0  9998
2 57145  43.0034  71.9840 0001384 269.0202  91.0481 15.02531725125725
STARLINK-5791           
1 57146U 23090AX  25269.82444878 -.00000608  00000+0 -29965-4 0  9996
2 57146  43.0044  72.0335 0001238 266.4698  93.6002 15.02529832125729
STARLINK-5765           
1 57147U 23090AY  25269.94629662  .00000167  00000+0  27407-4 0  9993
2 57147  43.0031  71.2269 0001037 271.5110  88.5614 15.02536080125934
STARLINK-5788           
1 57148U 23090AZ  25269.80668398  .00001337  00000+0  11409-3 0  9992
2 57148  43.0033  71.9009 0001425 275.8770  84.1910 15.02527430125723
